[{"OBJECT_NAME":"STARLINK-34987","OBJECT_ID":"2025-179W","EPOCH":"2026-03-09T16:10:18.932736","MEAN_MOTION":15.05651677,"ECCENTRICITY":2.791e-5,"INCLINATION":97.6034,"RA_OF_ASC_NODE":112.9118,"ARG_OF_PERICENTER":115.2852,"MEAN_ANOMALY":244.8404,"EPHEMERIS_TYPE":0,"CLASSIFICATION_TYPE":"U","NORAD_CAT_ID":65255,"ELEMENT_SET_NO":999,"REV_AT_EPOCH":3180,"BSTAR":0.00024609509,"MEAN_MOTION_DOT":3.492e-5,"MEAN_MOTION_DDOT":0},{"OBJECT_NAME":"AISAT","OBJECT_ID":"2014-034B","EPOCH":"2026-03-09T16:29:04.722144","MEAN_MOTION":15.06703825,"ECCENTRICITY":0.00089151,"INCLINATION":98.2441,"RA_OF_ASC_NODE":333.9816,"ARG_OF_PERICENTER":189.0234,"MEAN_ANOMALY":171.0832,"EPHEMERIS_TYPE":0,"CLASSIFICATION_TYPE":"U","NORAD_CAT_ID":40054,"ELEMENT_SET_NO":999,"REV_AT_EPOCH":63221,"BSTAR":0.00094770343,"MEAN_MOTION_DOT":0.00014038,"MEAN_MOTION_DDOT":0}]
